H1 CPF  1  DLR 2022 04 05 10  5952 technosat            
H2  1704205 6203    42829 2022 04 05 00 00 00 2022 04 12 00 00 00    60 1 1  0 0 0
H9
10 0 59674  57600.000000  0       2149966.721       4904279.262       4463041.288
10 0 59674  57660.000000  0       2352583.074       5115097.995       4110327.616
10 0 59674  57720.000000  0       2547035.349       5302638.370       3740178.637
10 0 59674  57780.000000  0       2732293.579       5466177.683       3354158.368
10 0 59674  57840.000000  0       2907360.363       5605103.288       2953899.866
10 0 59674  57900.000000  0       3071276.236       5718915.179       2541098.176
10 0 59674  57960.000000  0       3223124.872       5807227.911       2117503.017
10 0 59674  58020.000000  0       3362038.086       5869772.008       1684911.300
10 0 59674  58080.000000  0       3487200.650       5906394.898       1245159.388
10 0 59674  58140.000000  0       3597854.879       5917061.289        800115.108
10 0 59674  58200.000000  0       3693305.022       5901852.943        351669.582
10 0 59674  58260.000000  0       3772921.374       5860967.833        -98271.076
10 0 59674  58320.000000  0       3836144.000       5794718.714       -547794.126
10 0 59674  58380.000000  0       3882486.141       5703531.185       -994988.556
10 0 59674  58440.000000  0       3911537.314       5587941.229      -1437953.474
10 0 59674  58500.000000  0       3922966.014       5448592.167      -1874806.488
10 0 59674  58560.000000  0       3916522.000       5286231.086      -2303691.949
10 0 59674  58620.000000  0       3892038.170       5101704.786      -2722789.076
10 0 59674  58680.000000  0       3849432.005       4895955.248      -3130319.890
10 0 59674  58740.000000  0       3788706.582       4670014.631      -3524556.909
10 0 59674  58800.000000  0       3709951.137       4424999.907      -3903830.508
10 0 59674  58860.000000  0       3613341.265       4162107.169      -4266536.003
10 0 59674  58920.000000  0       3499138.690       3882605.625      -4611140.461
10 0 59674  58980.000000  0       3367690.576       3587831.252      -4936189.175
10 0 59674  59040.000000  0       3219428.414       3279180.178      -5240311.684
10 0 59674  59100.000000  0       3054866.509       2958101.855      -5522227.389
10 0 59674  59160.000000  0       2874600.089       2626092.094      -5780750.722
10 0 59674  59220.000000  0       2679303.034       2284685.975      -6014795.958
10 0 59674  59280.000000  0       2469725.189       1935450.589      -6223381.521
10 0 59674  59340.000000  0       2246689.363       1579977.775      -6405633.777
10 0 59674  59400.000000  0       2011088.010       1219876.830      -6560790.392
10 0 59674  59460.000000  0       1763879.627        856767.242      -6688203.238
10 0 59674  59520.000000  0       1506084.841        492271.473      -6787340.896
10 0 59674  59580.000000  0       1238782.145        128007.765      -6857790.771
10 0 59674  59640.000000  0        963103.293       -234417.048      -6899260.622
10 0 59674  59700.000000  0        680228.509       -593414.564      -6911579.541
10 0 59674  59760.000000  0        391381.481       -947421.650      -6894698.514
10 0 59674  59820.000000  0         97824.150      -1294907.125      -6848690.539
10 0 59674  59880.000000  0       -199148.699      -1634378.227      -6773750.314
10 0 59674  59940.000000  0       -498215.076      -1964386.942      -6670193.551
10 0 59674  60000.000000  0       -798031.640      -2283536.163      -6538455.761
10 0 59674  60060.000000  0      -1097239.663      -2590485.616      -6379090.509
10 0 59674  60120.000000  0      -1394471.089      -2883957.450      -6192767.190
10 0 59674  60180.000000  0      -1688354.691      -3162741.534      -5980268.433
10 0 59674  60240.000000  0      -1977522.329      -3425700.487      -5742487.060
10 0 59674  60300.000000  0      -2260615.272      -3671774.409      -5480422.625
10 0 59674  60360.000000  0      -2536290.613      -3899985.320      -5195177.487
10 0 59674  60420.000000  0      -2803227.690      -4109441.209      -4887952.370
10 0 59674  60480.000000  0      -3060134.453      -4299339.665      -4560041.475
10 0 59674  60540.000000  0      -3305753.742      -4468971.096      -4212827.198
10 0 59674  60600.000000  0      -3538869.482      -4617721.525      -3847774.467
10 0 59674  60660.000000  0      -3758312.764      -4745074.983      -3466424.704
10 0 59674  60720.000000  0      -3962967.794      -4850615.436      -3070389.389
10 0 59674  60780.000000  0      -4151777.636      -4934028.217      -2661343.275
10 0 59674  60840.000000  0      -4323749.718      -4995100.995      -2241017.304
10 0 59674  60900.000000  0      -4477961.088      -5033724.252      -1811191.232
10 0 59674  60960.000000  0      -4613563.369      -5049891.264      -1373685.988
10 0 59674  61020.000000  0      -4729787.378      -5043697.577       -930355.832
10 0 59674  61080.000000  0      -4825947.394      -5015340.007       -483080.341
10 0 59674  61140.000000  0      -4901445.040      -4965115.142        -33756.237
10 0 59674  61200.000000  0      -4955772.760      -4893417.354        415710.878
10 0 59674  61260.000000  0      -4988516.861      -4800736.315        863414.861
10 0 59674  61320.000000  0      -4999360.070      -4687654.037       1307457.368
10 0 59674  61380.000000  0      -4988083.602      -4554841.452       1745956.118
10 0 59674  61440.000000  0      -4954568.777      -4403054.603       2177053.048
10 0 59674  61500.000000  0      -4898798.140      -4233130.428       2598922.359
10 0 59674  61560.000000  0      -4820856.082      -4045982.171       3009778.364
10 0 59674  61620.000000  0      -4720928.988      -3842594.491       3407883.116
10 0 59674  61680.000000  0      -4599304.900      -3624018.267       3791553.847
10 0 59674  61740.000000  0      -4456372.653      -3391365.078       4159170.125
10 0 59674  61800.000000  0      -4292620.501      -3145801.442       4509180.645
10 0 59674  61860.000000  0      -4108634.303      -2888542.881       4840109.620
10 0 59674  61920.000000  0      -3905095.302      -2620847.858       5150562.838
10 0 59674  61980.000000  0      -3682777.469      -2344011.593       5439233.348
10 0 59674  62040.000000  0      -3442544.439      -2059359.789       5704906.777
10 0 59674  62100.000000  0      -3185346.046      -1768242.297       5946466.282
10 0 59674  62160.000000  0      -2912214.412      -1472026.668       6162897.076
10 0 59674  62220.000000  0      -2624259.700      -1172091.713       6353290.460
10 0 59674  62280.000000  0      -2322665.484       -869821.051       6516847.439
10 0 59674  62340.000000  0      -2008683.761       -566596.728       6652881.799
10 0 59674  62400.000000  0      -1683629.693       -263792.999       6760822.671
10 0 59674  62460.000000  0      -1348876.155         37229.734       6840216.707
10 0 59674  62520.000000  0      -1005848.025        335130.940       6890729.889
10 0 59674  62580.000000  0       -656016.187        628595.852       6912148.862
10 0 59674  62640.000000  0       -300891.305        916341.204       6904381.779
10 0 59674  62700.000000  0         57982.595       1197120.769       6867458.703
10 0 59674  62760.000000  0        419034.743       1469730.714       6801531.570
10 0 59674  62820.000000  0        780674.435       1733014.755       6706873.614
10 0 59674  62880.000000  0       1141297.937       1985869.008       6583878.314
10 0 59674  62940.000000  0       1499295.491       2227246.577       6433057.941
10 0 59674  63000.000000  0       1853058.417       2456161.890       6255041.636
10 0 59674  63060.000000  0       2200986.272       2671694.764       6050573.085
10 0 59674  63120.000000  0       2541494.101       2872994.195       5820507.700
10 0 59674  63180.000000  0       2873019.708       3059281.826       5565809.337
10 0 59674  63240.000000  0       3194030.915       3229855.079       5287546.498
10 0 59674  63300.000000  0       3503032.727       3384089.936       4986888.023
10 0 59674  63360.000000  0       3798574.285       3521443.286       4665098.364
10 0 59674  63420.000000  0       4079255.727       3641454.917       4323532.628
10 0 59674  63480.000000  0       4343735.110       3743749.241       3963631.286
10 0 59674  63540.000000  0       4590735.246       3828036.658       3586914.114
10 0 59674  63600.000000  0       4819049.996       3894114.316       3194973.639
10 0 59674  63660.000000  0       5027550.255       3941866.458       2789468.515
10 0 59674  63720.000000  0       5215189.785       3971264.414       2372116.569
10 0 59674  63780.000000  0       5381010.683       3982366.140       1944687.430
10 0 59674  63840.000000  0       5524148.418       3975315.347       1508994.897
10 0 59674  63900.000000  0       5643836.465       3950340.186       1066889.065
10 0 59674  63960.000000  0       5739410.503       3907751.504        620248.251
10 0 59674  64020.000000  0       5810312.092       3847940.659        170970.726
10 0 59674  64080.000000  0       5856091.805       3771376.943       -279033.598
10 0 59674  64140.000000  0       5876411.896       3678604.643       -727851.541
10 0 59674  64200.000000  0       5871048.397       3570239.698      -1173575.095
10 0 59674  64260.000000  0       5839892.643       3446965.999      -1614309.794
10 0 59674  64320.000000  0       5782952.226       3309531.397      -2048183.017
10 0 59674  64380.000000  0       5700351.358       3158743.409      -2473352.161
10 0 59674  64440.000000  0       5592330.720       2995464.670      -2888012.654
10 0 59674  64500.000000  0       5459246.728       2820608.114      -3290405.785
10 0 59674  64560.000000  0       5301570.272       2635131.974      -3678826.272
10 0 59674  64620.000000  0       5119884.911       2440034.591      -4051629.675
10 0 59674  64680.000000  0       4914884.346       2236349.001      -4407239.443
10 0 59674  64740.000000  0       4687369.436       2025137.437      -4744153.436
99
